{"type": "FeatureCollection", "features": [ {"type": "Feature", "properties": {"norad_id": 40118, "name": "GAOFEN-2", "group": "resource", "lat": 81.88777140514345, "lon": -40.67704278973046, "alt_km": 613.7844776374923, "timestamp": "2025-12-23T16:57:12.002143+00:00", "meta": {"OBJECT_NAME": "GAOFEN-2", "OBJECT_ID": "2014-049A", "EPOCH": "2025-12-23T06:48:45.415008", "MEAN_MOTION": 14.80627174, "ECCENTRICITY": 0.00087937, "INCLINATION": 98.0371, "RA_OF_ASC_NODE": 56.4705, "ARG_OF_PERICENTER": 83.8964, "MEAN_ANOMALY": 276.325, "EPHEMERIS_TYPE": 0, "CLASSIFICATION_TYPE": "U", "NORAD_CAT_ID": 40118, "ELEMENT_SET_NO": 999, "REV_AT_EPOCH": 61320, "BSTAR": 0.00014331332, "MEAN_MOTION_DOT": 1.047e-05, "MEAN_MOTION_DDOT": 0}, "tle": {"line1": "1 40118U 14049A   25357.28385897  .00001047  00000+0  14331-3 0  9990", "line2": "2 40118  98.0371  56.4705 0008793  83.8964 276.3250 14.80627174613203"}}, "geometry": {"type": "Point", "coordinates": [-40.67704278973046, 81.88777140514345]}}, {"type": "Feature", "properties": {"norad_id": 40143, "name": "YAOGAN-21", "group": "resource", "lat": -46.36649448045123, "lon": 48.133692513515804, "alt_km": 497.6301858437182, "timestamp": "2025-12-23T16:57:12.002153+00:00", "meta": {"OBJECT_NAME": "YAOGAN-21", "OBJECT_ID": "2014-053A", "EPOCH": "2025-12-23T07:42:07.087104", "MEAN_MOTION": 15.23776357, "ECCENTRICITY": 0.00087119, "INCLINATION": 97.1739, "RA_OF_ASC_NODE": 40.1734, "ARG_OF_PERICENTER": 6.9257, "MEAN_ANOMALY": 353.2099, "EPHEMERIS_TYPE": 0, "CLASSIFICATION_TYPE": "U", "NORAD_CAT_ID": 40143, "ELEMENT_SET_NO": 999, "REV_AT_EPOCH": 62815, "BSTAR": 0.00019519384, "MEAN_MOTION_DOT": 4.633e-05, "MEAN_MOTION_DDOT": 0}, "tle": {"line1": "1 40143U 14053A   25357.32091536  .00004633  00000+0  19519-3 0  9999", "line2": "2 40143  97.1739  40.1734 0008711   6.9257 353.2099 15.23776357628154"}}, "geometry": {"type": "Point", "coordinates": [48.133692513515804, -46.36649448045123]}}, {"type": "Feature", "properties": {"norad_id": 40275, "name": "YAOGAN-22", "group": "resource", "lat": -41.50784815671704, "lon": -48.39079934209582, "alt_km": 1203.6555021729273, "timestamp": "2025-12-23T16:57:12.002164+00:00", "meta": {"OBJECT_NAME": "YAOGAN-22", "OBJECT_ID": "2014-063A", "EPOCH": "2025-12-23T03:02:59.112384", "MEAN_MOTION": 13.15523006, "ECCENTRICITY": 0.00060672, "INCLINATION": 100.7429, "RA_OF_ASC_NODE": 140.6935, "ARG_OF_PERICENTER": 223.3805, "MEAN_ANOMALY": 136.6829, "EPHEMERIS_TYPE": 0, "CLASSIFICATION_TYPE": "U", "NORAD_CAT_ID": 40275, "ELEMENT_SET_NO": 999, "REV_AT_EPOCH": 53666, "BSTAR": 0.00010140547, "MEAN_MOTION_DOT": -8e-08, "MEAN_MOTION_DDOT": 0}, "tle": {"line1": "1 40275U 14063A   25357.12707306 -.00000008  00000+0  10141-3 0  9998", "line2": "2 40275 100.7429 140.6935 0006067 223.3805 136.6829 13.15523006536660"}}, "geometry": {"type": "Point", "coordinates": [-48.39079934209582, -41.50784815671704]}}, {"type": "Feature", "properties": {"norad_id": 40298, "name": "ASNARO", "group": "resource", "lat": -18.74643486034648, "lon": -109.13069039701595, "alt_km": 512.9720044263195, "timestamp": "2025-12-23T16:57:12.002174+00:00", "meta": {"OBJECT_NAME": "ASNARO", "OBJECT_ID": "2014-070A", "EPOCH": "2025-12-23T06:36:01.068768", "MEAN_MOTION": 15.19704806, "ECCENTRICITY": 0.00057882, "INCLINATION": 97.3644, "RA_OF_ASC_NODE": 72.9642, "ARG_OF_PERICENTER": 94.0959, "MEAN_ANOMALY": 266.0937, "EPHEMERIS_TYPE": 0, "CLASSIFICATION_TYPE": "U", "NORAD_CAT_ID": 40298, "ELEMENT_SET_NO": 999, "REV_AT_EPOCH": 61729, "BSTAR": 0.00064728004, "MEAN_MOTION_DOT": 0.00013776, "MEAN_MOTION_DDOT": 0}, "tle": {"line1": "1 40298U 14070A   25357.27501237  .00013776  00000+0  64728-3 0  9997", "line2": "2 40298  97.3644  72.9642 0005788  94.0959 266.0937 15.19704806617291"}}, "geometry": {"type": "Point", "coordinates": [-109.13069039701595, -18.74643486034648]}}, {"type": "Feature", "properties": {"norad_id": 40310, "name": "YAOGAN-24", "group": "resource", "lat": -77.34471585142448, "lon": -90.64255152300595, "alt_km": 658.3254317268638, "timestamp": "2025-12-23T16:57:12.002184+00:00", "meta": {"OBJECT_NAME": "YAOGAN-24", "OBJECT_ID": "2014-072A", "EPOCH": "2025-12-23T07:38:42.182592", "MEAN_MOTION": 14.76195626, "ECCENTRICITY": 0.00151518, "INCLINATION": 98.1231, "RA_OF_ASC_NODE": 128.4687, "ARG_OF_PERICENTER": 106.4936, "MEAN_ANOMALY": 253.794, "EPHEMERIS_TYPE": 0, "CLASSIFICATION_TYPE": "U", "NORAD_CAT_ID": 40310, "ELEMENT_SET_NO": 999, "REV_AT_EPOCH": 59777, "BSTAR": 8.1278293e-05, "MEAN_MOTION_DOT": 5.1e-06, "MEAN_MOTION_DDOT": 0}, "tle": {"line1": "1 40310U 14072A   25357.31854378  .00000510  00000+0  81278-4 0  9998", "line2": "2 40310  98.1231 128.4687 0015151 106.4936 253.7940 14.76195626597774"}}, "geometry": {"type": "Point", "coordinates": [-90.64255152300595, -77.34471585142448]}}, {"type": "Feature", "properties": {"norad_id": 40336, "name": "CBERS 4", "group": "resource", "lat": -17.446335429888823, "lon": -127.29132035394304, "alt_km": 778.422289955457, "timestamp": "2025-12-23T16:57:12.002194+00:00", "meta": {"OBJECT_NAME": "CBERS 4", "OBJECT_ID": "2014-079A", "EPOCH": "2025-12-23T07:40:19.487136", "MEAN_MOTION": 14.35521669, "ECCENTRICITY": 0.00018663, "INCLINATION": 98.3294, "RA_OF_ASC_NODE": 54.9742, "ARG_OF_PERICENTER": 101.1393, "MEAN_ANOMALY": 259.0003, "EPHEMERIS_TYPE": 0, "CLASSIFICATION_TYPE": "U", "NORAD_CAT_ID": 40336, "ELEMENT_SET_NO": 999, "REV_AT_EPOCH": 57872, "BSTAR": 7.4146347e-05, "MEAN_MOTION_DOT": 1.71e-06, "MEAN_MOTION_DDOT": 0}, "tle": {"line1": "1 40336U 14079A   25357.31966999  .00000171  00000+0  74146-4 0  9995", "line2": "2 40336  98.3294  54.9742 0001866 101.1393 259.0003 14.35521669578723"}}, "geometry": {"type": "Point", "coordinates": [-127.29132035394304, -17.446335429888823]}}, {"type": "Feature", "properties": {"norad_id": 40362, "name": "YAOGAN-26", "group": "resource", "lat": -69.72883815989076, "lon": 17.610048621243248, "alt_km": 453.0244356658068, "timestamp": "2025-12-23T16:57:12.002204+00:00", "meta": {"OBJECT_NAME": "YAOGAN-26", "OBJECT_ID": "2014-088A", "EPOCH": "2025-12-23T06:20:32.371584", "MEAN_MOTION": 15.39662995, "ECCENTRICITY": 0.00047207, "INCLINATION": 97.0643, "RA_OF_ASC_NODE": 357.5642, "ARG_OF_PERICENTER": 356.5887, "MEAN_ANOMALY": 3.5327, "EPHEMERIS_TYPE": 0, "CLASSIFICATION_TYPE": "U", "NORAD_CAT_ID": 40362, "ELEMENT_SET_NO": 999, "REV_AT_EPOCH": 61056, "BSTAR": 0.00069602247, "MEAN_MOTION_DOT": 0.00027458, "MEAN_MOTION_DDOT": 0}, "tle": {"line1": "1 40362U 14088A   25357.26426356  .00027458  00000+0  69602-3 0  9993", "line2": "2 40362  97.0643 357.5642 0004720 356.5887   3.5327 15.39662995610566"}}, "geometry": {"type": "Point", "coordinates": [17.610048621243248, -69.72883815989076]}}, {"type": "Feature", "properties": {"norad_id": 40376, "name": "SMAP", "group": "resource", "lat": 56.47423642889532, "lon": -10.18640334058361, "alt_km": 676.2120811497671, "timestamp": "2025-12-23T16:57:12.002215+00:00", "meta": {"OBJECT_NAME": "SMAP", "OBJECT_ID": "2015-003A", "EPOCH": "2025-12-23T03:33:49.735584", "MEAN_MOTION": 14.63357429, "ECCENTRICITY": 0.00012295, "INCLINATION": 98.1289, "RA_OF_ASC_NODE": 1.7223, "ARG_OF_PERICENTER": 91.7952, "MEAN_ANOMALY": 268.3391, "EPHEMERIS_TYPE": 0, "CLASSIFICATION_TYPE": "U", "NORAD_CAT_ID": 40376, "ELEMENT_SET_NO": 999, "REV_AT_EPOCH": 58187, "BSTAR": 0.00010770327, "MEAN_MOTION_DOT": 5.09e-06, "MEAN_MOTION_DDOT": 0}, "tle": {"line1": "1 40376U 15003A   25357.14849231  .00000509  00000+0  10770-3 0  9994", "line2": "2 40376  98.1289   1.7223 0001229  91.7952 268.3391 14.63357429581876"}}, "geometry": {"type": "Point", "coordinates": [-10.18640334058361, 56.47423642889532]}}, {"type": "Feature", "properties": {"norad_id": 40536, "name": "KOMPSAT-3A", "group": "resource", "lat": 52.792015166992115, "lon": -37.57645870958334, "alt_km": 425.94108131189114, "timestamp": "2025-12-23T16:57:12.002226+00:00", "meta": {"OBJECT_NAME": "KOMPSAT-3A", "OBJECT_ID": "2015-014A", "EPOCH": "2025-12-23T05:50:13.236000", "MEAN_MOTION": 15.4431432, "ECCENTRICITY": 0.00055987, "INCLINATION": 97.6802, "RA_OF_ASC_NODE": 332.1724, "ARG_OF_PERICENTER": 104.102, "MEAN_ANOMALY": 256.085, "EPHEMERIS_TYPE": 0, "CLASSIFICATION_TYPE": "U", "NORAD_CAT_ID": 40536, "ELEMENT_SET_NO": 999, "REV_AT_EPOCH": 59457, "BSTAR": 0.00042144941, "MEAN_MOTION_DOT": 0.00019353, "MEAN_MOTION_DDOT": 0}, "tle": {"line1": "1 40536U 15014A   25357.24320875  .00019353  00000+0  42145-3 0  9991", "line2": "2 40536  97.6802 332.1724 0005598 104.1020 256.0850 15.44314320594572"}}, "geometry": {"type": "Point", "coordinates": [-37.57645870958334, 52.792015166992115]}}, {"type": "Feature", "properties": {"norad_id": 40697, "name": "SENTINEL-2A", "group": "resource", "lat": 79.07810294677807, "lon": 18.66028198702647, "alt_km": 780.9034835786515, "timestamp": "2025-12-23T16:57:12.002236+00:00", "meta": {"OBJECT_NAME": "SENTINEL-2A", "OBJECT_ID": "2015-028A", "EPOCH": "2025-12-23T06:29:45.367008", "MEAN_MOTION": 14.3080892, "ECCENTRICITY": 0.00010575, "INCLINATION": 98.5735, "RA_OF_ASC_NODE": 69.6558, "ARG_OF_PERICENTER": 89.638, "MEAN_ANOMALY": 270.4924, "EPHEMERIS_TYPE": 0, "CLASSIFICATION_TYPE": "U", "NORAD_CAT_ID": 40697, "ELEMENT_SET_NO": 999, "REV_AT_EPOCH": 54857, "BSTAR": 1.6709506e-05, "MEAN_MOTION_DOT": 0, "MEAN_MOTION_DDOT": 0}, "tle": {"line1": "1 40697U 15028A   25357.27066397  .00000000  00000+0  16710-4 0  9992", "line2": "2 40697  98.5735  69.6558 0001057  89.6380 270.4924 14.30808920548573"}}, "geometry": {"type": "Point", "coordinates": [18.66028198702647, 79.07810294677807]}}]}